{
  "norad_id": 54807,
  "name": "STARLINK-5410",
  "history": [
    {
      "epoch": "2026-03-28T21:24:33.993504Z",
      "apogee_km": 540.5204537967002,
      "perigee_km": 538.9495434232549,
      "latitude_deg": -3.5823519883573654e-06,
      "longitude_deg": 155.10226724710154,
      "height_km": 540.5257617507646,
      "semi_major_axis_km": 6917.871998609977,
      "eccentricity": 0.00011354,
      "inclination_deg": 53.2179,
      "raan_deg": 302.5499,
      "arg_perigee_deg": 82.294,
      "mean_anomaly_deg": 277.8181,
      "mean_motion_rev_day": 15.08842745
    }
  ]
}